GOSAT-GW (IBUKI GW)     
1 64694U 25141A   26155.78111411  .00000901  00000+0  16729-3 0  9992
2 64694  98.0569  93.3001 0001426  83.2515 276.8852 14.67553151 50024
IONOSFERA-M 3           
1 64876U 25155A   26155.85739344  .00000077  00000+0  54997-4 0  9992
2 64876  98.6020 118.0733 0000253 191.2243 168.8928 14.21484329 44652
IONOSFERA-M 4           
1 64877U 25155B   26155.82186562  .00000075  00000+0  54004-4 0  9995
2 64877  98.6024 117.9562 0000633 110.5790 249.5456 14.21486453 44640
MICROCARB               
1 64899U 25156A   26155.10123178  .00000670  00000+0  11375-3 0  9999
2 64899  97.9831 232.4719 0015320 317.6941  42.3084 14.72311835 46045
CO3D 3                  
1 64900U 25156B   26155.28636534  .00003529  00000+0  16609-3 0  9997
2 64900  97.4326 234.1647 0000953 142.6428 217.4873 15.20198523 47574
CO3D 4                  
1 64901U 25156C   26155.28653289  .00005687  00000+0  26562-3 0  9990
2 64901  97.4328 234.1648 0001045  39.2400 320.8911 15.20201049 47572
CO3D 2                  
1 64902U 25156D   26155.25317380  .00005218  00000+0  24398-3 0  9992
2 64902  97.4327 234.0312 0001314 119.3951 240.7415 15.20205422 47566
CO3D 1                  
1 64903U 25156E   26155.25332430  .00005255  00000+0  24574-3 0  9993
2 64903  97.4326 234.0313 0001098 119.7472 240.3873 15.20197002 47566
PRSC-S1                 
1 65055U 25164A   26154.93770247  .00005313  00000+0  36643-3 0  9992
2 65055  41.1316   2.4261 0007637 267.4450  92.5490 15.06328784 46435
SENTINEL-6B             
1 66514U 25264A   26155.20330166 -.00000057  00000+0  18263-4 0  9997
2 66514  66.0384 162.1463 0008060 269.2892  90.7199 12.80929598 25506
CAS500-3                
1 66655U 25274F   26155.23947852  .00001582  00000+0  17689-3 0  9996
2 66655  97.7446  83.5854 0005971 145.0910 215.0700 14.88289034 28228
CSG-3                   
1 67304U 26001A   26155.30451010  .00000421  00000+0  59453-4 0  9998
2 67304  97.8886 339.0932 0001304  93.2972 266.8390 14.82159941 22559
PRSC-E03                
1 68835U 26092A   26155.72820300  .00002535  00000+0  17506-3 0  9996
2 68835  37.9994 163.1460 0005347 280.9320  79.0840 15.06609431  6073
CAS500-2                
1 69013U 26100AK  26155.64844318  .00007744  00000+0  35748-3 0  9996
2 69013  97.4084  53.7208 0011573  74.0899 286.1611 15.20434131  4904
